NORAD_CAT_ID,OBJECT_NAME,OBJECT_TYPE,EPOCH,MEAN_MOTION,ECCENTRICITY,INCLINATION,RA_OF_ASC_NODE,ARG_OF_PERICENTER,MEAN_ANOMALY,BSTAR,MEAN_MOTION_DOT,MEAN_MOTION_DDOT,TLE_LINE0,TLE_LINE1,TLE_LINE2,SEMIMAJOR_AXIS,PERIOD,APOGEE,PERIGEE,DECAYED
53718.0,STARLINK-4695,PAYLOAD,2022-10-28 14:00:01,15.50015947,0.0001735,53.2156,9.4398,35.9139,218.4209,-0.013662,-0.00721453,0.0,0 STARLINK-4695,1 53718U 22107U   22301.58335648 -.00721453  00000-0 -13662-1 0  9999,2 53718  53.2156   9.4398 0001735  35.9139 218.4209 15.50015947  1304,6794.816,92.902,417.86,415.503,0.0
53718.0,STARLINK-4695,PAYLOAD,2022-10-28 22:00:01,15.49655706,0.0001551999999999,53.2173,7.8454,31.3079,283.7609,-0.019614,-0.01007523,0.0,0 STARLINK-4695,1 53718U 22107U   22301.91668981 -.01007523  00000-0 -19614-1 0  9994,2 53718  53.2173   7.8454 0001552  31.3079 283.7609 15.49655706  8563,6795.869000000002,92.924,418.789,416.68,0.0
53718.0,STARLINK-4695,PAYLOAD,2022-10-29 08:00:01,15.487250400000002,0.0001867,53.2174,5.8559,34.9185,85.1998,-0.022934,-0.0114373,0.0,0 STARLINK-4695,1 53718U 22107U   22302.33334491 -.01143730  00000-0 -22934-1 0  9997,2 53718  53.2174   5.8559 0001867  34.9185  85.1998 15.48725040  8635,6798.592,92.98,421.726,419.187,0.0
53718.0,STARLINK-4695,PAYLOAD,2022-10-29 12:00:00,15.48310596,0.0001708,53.217,5.0618,35.5098,294.2458,-0.023063,-0.01117935,0.0,0 STARLINK-4695,1 53718U 22107U   22302.50001157 -.01117935  00000-0 -23063-1 0  9998,2 53718  53.2170   5.0618 0001708  35.5098 294.2458 15.48310596  1300,6799.805,93.005,422.831,420.508,0.0
53718.0,STARLINK-4695,PAYLOAD,2022-10-29 22:00:01,15.47298429,0.0001950999999999,53.2174,3.0754,32.957,99.8756,-0.024017,-0.01139602,0.0,0 STARLINK-4695,1 53718U 22107U   22302.91668981 -.01139602  00000-0 -24017-1 0  9992,2 53718  53.2174   3.0754 0001951  32.9570  99.8756 15.47298429  1308,6802.77,93.065,425.962,423.3080000000001,0.0
53718.0,STARLINK-4695,PAYLOAD,2022-10-30 14:00:01,15.45670095,0.0001496999999999,53.2173,359.9072,47.5504,198.8617,-0.025336,-0.01136238,0.0,0 STARLINK-4695,1 53718U 22107U   22303.58334491 -.01136238  00000-0 -25336-1 0  9999,2 53718  53.2173 359.9072 0001497  47.5504 198.8617 15.45670095  1304,6807.547,93.163,430.431,428.393,0.0
53718.0,STARLINK-4695,PAYLOAD,2022-10-30 22:00:01,15.44860798,0.0001385,53.2174,358.3235,46.9072,254.9251,-0.026255,-0.0114431,0.0,0 STARLINK-4695,1 53718U 22107U   22303.91668981 -.01144310  00000-0 -26255-1 0  9991,2 53718  53.2174 358.3235 0001385  46.9072 254.9251 15.44860798  1306,6809.924,93.212,432.732,430.846,0.0
53718.0,STARLINK-4695,PAYLOAD,2022-10-31 14:00:01,15.43242208,0.0001514,53.2169,355.167,39.4222,10.1189,-0.028051,-0.01155804,0.0,0 STARLINK-4695,1 53718U 22107U   22304.58334491 -.01155804  00000-0 -28051-1 0  9997,2 53718  53.2169 355.1670 0001514  39.4222  10.1189 15.43242208  1307,6814.685,93.31,437.582,435.518,0.0
53718.0,STARLINK-4695,PAYLOAD,2022-10-31 22:00:01,15.42416155,0.0001706,53.2172,353.589,38.2966,63.738,-0.028374,-0.0113851,0.0,0 STARLINK-4695,1 53718U 22107U   22304.91668981 -.01138510  00000-0 -28374-1 0  9991,2 53718  53.2172 353.5890 0001706  38.2966  63.7380 15.42416155  9030,6817.118,93.36,440.146,437.82,0.0
53718.0,STARLINK-4695,PAYLOAD,2022-11-01 14:00:01,15.40790901,0.0001643,53.2168,350.4442,43.0144,160.8645,-0.030007,-0.01139938,0.0,0 STARLINK-4695,1 53718U 22107U   22305.58334491 -.01139938  00000-0 -30007-1 0  9992,2 53718  53.2168 350.4442 0001643  43.0144 160.8645 15.40790901  1303,6821.911,93.458,444.897,442.655,0.0
53718.0,STARLINK-4695,PAYLOAD,2022-11-01 22:00:00,15.39976153,0.0001699,53.2175,348.8721,38.8205,214.5492,-0.030808,-0.0113913,0.0,0 STARLINK-4695,1 53718U 22107U   22305.91667824 -.01139130  00000-0 -30808-1 0  9991,2 53718  53.2175 348.8721 0001699  38.8205 214.5492 15.39976153  1303,6824.316999999999,93.508,447.341,445.022,0.0
53718.0,STARLINK-4695,PAYLOAD,2022-11-02 14:00:01,15.38348434,0.0001733999999999,53.2174,345.73900000000015,31.1429,318.2697,-0.032476,-0.01138061,0.0,0 STARLINK-4695,1 53718U 22107U   22306.58334491 -.01138061  00000-0 -32476-1 0  9991,2 53718  53.2174 345.7390 0001734  31.1429 318.2697 15.38348434  9282,6829.13,93.607,452.179,449.811,0.0
53718.0,STARLINK-4695,PAYLOAD,2022-11-02 22:00:00,15.37534399,0.0001503,53.2175,344.1724,38.7251,357.2445,-0.033368,-0.01138448,0.0,0 STARLINK-4695,1 53718U 22107U   22306.91667824 -.01138448  00000-0 -33368-1 0  9997,2 53718  53.2175 344.1724 0001503  38.7251 357.2445 15.37534399  1302,6831.54,93.656,454.432,452.378,0.0
53718.0,STARLINK-4695,PAYLOAD,2022-11-03 06:00:02,15.36749025,0.0001971,53.2169,342.6098,27.4419,54.15600000000001,-0.035549,-0.0117846,0.0,0 STARLINK-4695,1 53718U 22107U   22307.25002315 -.01178460  00000-0 -35549-1 0  9994,2 53718  53.2169 342.6098 0001971  27.4419  54.1560 15.36749025  9393,6833.8669999999975,93.704,457.079,454.385,0.0
53718.0,STARLINK-4695,PAYLOAD,2022-11-03 14:00:01,15.3591149,0.0001858,53.2169,341.0506,36.9306,89.2125,-0.035344,-0.01143531,0.0,0 STARLINK-4695,1 53718U 22107U   22307.58334491 -.01143531  00000-0 -35344-1 0  9997,2 53718  53.2169 341.0506 0001858  36.9306  89.2125 15.35911490  1309,6836.351,93.755,459.487,456.946,0.0
53718.0,STARLINK-4695,PAYLOAD,2022-11-03 22:00:00,15.350922699999998,0.0001756,53.2174,339.4902,40.4824,129.2861,-0.036029,-0.01135984,0.0,0 STARLINK-4695,1 53718U 22107U   22307.91667824 -.01135984  00000-0 -36029-1 0  9997,2 53718  53.2174 339.4902 0001756  40.4824 129.2861 15.35092270  1306,6838.783,93.805,461.849,459.448,0.0
53718.0,STARLINK-4695,PAYLOAD,2022-11-04 14:00:01,15.33465462,0.0001715,53.2173,336.3802,40.6425,213.4343,-0.037962,-0.01136206,0.0,0 STARLINK-4695,1 53718U 22107U   22308.58334491 -.01136206  00000-0 -37962-1 0  9997,2 53718  53.2173 336.3802 0001715  40.6425 213.4343 15.33465462  9599,6843.619000000002,93.905,466.658,464.311,0.0
53718.0,STARLINK-4695,PAYLOAD,2022-11-04 22:00:01,15.32658601,0.0001629,53.2172,334.8252,33.2594,261.5678,-0.039334,-0.01146499,0.0,0 STARLINK-4695,1 53718U 22107U   22308.91668981 -.01146499  00000-0 -39334-1 0  9998,2 53718  53.2172 334.8252 0001629  33.2594 261.5678 15.32658601  1303,6846.021,93.954,469.001,466.771,0.0
53718.0,STARLINK-4695,PAYLOAD,2022-11-05 14:00:01,15.31028793,0.0001639,53.2168,331.7265,38.1806,335.0893,-0.041253,-0.01142635,0.0,0 STARLINK-4695,1 53718U 22107U   22309.58335648 -.01142635  00000-0 -41253-1 0  9994,2 53718  53.2168 331.7265 0001639  38.1806 335.0893 15.31028793  9754,6850.879,94.054,473.866,471.621,0.0
53718.0,STARLINK-4695,PAYLOAD,2022-11-05 22:00:01,15.3020925,0.0001563,53.2174,330.1777,39.2485,11.7798,-0.042013,-0.01134963,0.0,0 STARLINK-4695,1 53718U 22107U   22309.91668981 -.01134963  00000-0 -42013-1 0  9990,2 53718  53.2174 330.1777 0001563  39.2485  11.7798 15.30209250  1306,6853.324000000001,94.105,476.261,474.11800000000005,0.0
53718.0,STARLINK-4695,PAYLOAD,2022-11-06 14:00:01,15.28601156,0.0001865,53.2161,327.0903,37.7018,85.8272,-0.045201,-0.01159369,0.0,0 STARLINK-4695,1 53718U 22107U   22310.58334491 -.01159369  00000-0 -45201-1 0  9990,2 53718  53.2161 327.0903 0001865  37.7018  85.8272 15.28601156  9909,6858.13,94.204,481.274,478.716,0.0
53718.0,STARLINK-4695,PAYLOAD,2022-11-07 22:00:00,15.25326856,0.0001671,53.2173,320.9344,43.8205,213.1366,-0.04877,-0.01149239,0.0,0 STARLINK-4695,1 53718U 22107U   22311.91667824 -.01149239  00000-0 -48770-1 0  9996,2 53718  53.2173 320.9344 0001671  43.8205 213.1366 15.25326856  1308,6867.941,94.406,490.954,488.658,0.0
53718.0,STARLINK-4695,PAYLOAD,2022-11-08 00:00:02,15.25153874,0.0001585,53.2161,320.5501,36.9798,317.8432,-0.050832,-0.0118826,0.0,0 STARLINK-4695,1 53718U 22107U   22312.00002315 -.01188260  00000-0 -50832-1 0  9994,2 53718  53.2161 320.5501 0001585  36.9798 317.8432 15.25153874 10124,6868.46,94.417,491.414,489.237,0.0
53718.0,STARLINK-4695,PAYLOAD,2022-11-08 14:00:01,15.23733478,0.0001649,53.2157,317.8696,38.4916,279.2891,-0.053421,-0.01195916,0.0,0 STARLINK-4695,1 53718U 22107U   22312.58334491 -.01195916  00000-0 -53421-1 0  9993,2 53718  53.2157 317.8696 0001649  38.4916 279.2891 15.23733478  1305,6872.728,94.505,495.727,493.46,0.0
53718.0,STARLINK-4695,PAYLOAD,2022-11-08 22:00:00,15.22907343,0.0001657,53.2162,316.3381,35.907,310.8347,-0.053901,-0.01178696,0.0,0 STARLINK-4695,1 53718U 22107U   22312.91667824 -.01178696  00000-0 -53901-1 0  9998,2 53718  53.2162 316.3381 0001657  35.9070 310.8347 15.22907343  1309,6875.2130000000025,94.556,498.218,495.939,0.0
53718.0,STARLINK-4695,PAYLOAD,2022-11-09 06:00:00,15.22098889,0.000138,53.2165,314.8109,49.3055,325.4089,-0.055558,-0.01185439,0.0,0 STARLINK-4695,1 53718U 22107U   22313.25001157 -.01185439  00000-0 -55558-1 0  9990,2 53718  53.2165 314.8109 0001380  49.3055 325.4089 15.22098889 10310,6877.648,94.606,500.462,498.564,0.0
53718.0,STARLINK-4695,PAYLOAD,2022-11-09 14:00:01,15.21299638,0.0001668,53.2158,313.285,37.9092,3.7958,-0.057894,-0.01204795,0.0,0 STARLINK-4695,1 53718U 22107U   22313.58334491 -.01204795  00000-0 -57894-1 0  9998,2 53718  53.2158 313.2850 0001668  37.9092   3.7958 15.21299638  1305,6880.056,94.656,503.069,500.774,0.0
53718.0,STARLINK-4695,PAYLOAD,2022-11-09 22:00:01,15.20447834,0.0001626999999999,53.216,311.759,43.4875,24.3208,-0.056572,-0.01152439,0.0,0 STARLINK-4695,1 53718U 22107U   22313.91668981 -.01152439  00000-0 -56572-1 0  9998,2 53718  53.2160 311.7590 0001627  43.4875  24.3208 15.20447834  1307,6882.626,94.709,505.611,503.371,0.0
53718.0,STARLINK-4695,PAYLOAD,2022-11-10 14:00:01,15.18840564,0.0001792,53.2157,308.7174,44.0633,72.7786,-0.060858,-0.01180478,0.0,0 STARLINK-4695,1 53718U 22107U   22314.58334491 -.01180478  00000-0 -60858-1 0  9994,2 53718  53.2157 308.7174 0001792  44.0633  72.7786 15.18840564  1301,6887.481,94.809,510.58,508.111,0.0
